[{"OBJECT_NAME":"STARLINK-31315","OBJECT_ID":"2024-020J","EPOCH":"2026-03-09T22:39:40.717728","MEAN_MOTION":15.30173889,"ECCENTRICITY":0.00011676,"INCLINATION":53.1606,"RA_OF_ASC_NODE":295.2866,"ARG_OF_PERICENTER":97.673,"MEAN_ANOMALY":262.4403,"EPHEMERIS_TYPE":0,"CLASSIFICATION_TYPE":"U","NORAD_CAT_ID":58884,"ELEMENT_SET_NO":999,"REV_AT_EPOCH":11847,"BSTAR":-5.8099467e-5,"MEAN_MOTION_DOT":-2.078e-5,"MEAN_MOTION_DDOT":0},{"OBJECT_NAME":"COSMOS 2251 DEB","OBJECT_ID":"1993-036BXP","EPOCH":"2026-03-04T07:23:49.847712","MEAN_MOTION":15.24789556,"ECCENTRICITY":0.00190834,"INCLINATION":73.9759,"RA_OF_ASC_NODE":64.3004,"ARG_OF_PERICENTER":239.4537,"MEAN_ANOMALY":120.4779,"EPHEMERIS_TYPE":0,"CLASSIFICATION_TYPE":"U","NORAD_CAT_ID":47059,"ELEMENT_SET_NO":999,"REV_AT_EPOCH":9543,"BSTAR":0.0048704033,"MEAN_MOTION_DOT":0.00123422,"MEAN_MOTION_DDOT":0}]
